OSCAR 7 (AO-7)          
1 07530U 74089B   19316.93000458 -.00000045  00000-0  27343-5 0  9996
2 07530 101.7665 283.1875 0012502  63.1269 313.5910 12.53640774 58738
UOSAT 2 (UO-11)         
1 14781U 84021B   19316.64477034  .00000096  00000-0  17822-4 0  9990
2 14781  97.6021 334.3426 0008214 187.1860 172.9238 14.83119445899546
LUSAT (LO-19)           
1 20442U 90005G   19316.79439022  .00000001  00000-0  16515-4 0  9995
2 20442  98.6641 258.6398 0012872  77.0083 283.2537 14.32937709557444
ITAMSAT (IO-26)         
1 22826U 93061D   19316.46682140 -.00000008  00000-0  14927-4 0  9996
2 22826  98.9090 308.5111 0007924 281.8828  78.1464 14.30405140363133
RADIO ROSTO (RS-15)     
1 23439U 94085A   19316.83087850 -.00000039  00000-0  99779-4 0  9994
2 23439  64.8161 238.1782 0145419  84.4303 277.3185 11.27568628 24483
JAS-2 (FO-29)           
1 24278U 96046B   19316.84632767 -.00000030  00000-0  69059-5 0  9999
2 24278  98.5602  90.4525 0349805 218.4186 139.1571 13.53094802147700
TECHSAT 1B (GO-32)      
1 25397U 98043D   19316.85769285 -.00000018  00000-0  11527-4 0  9990
2 25397  98.7028 255.2988 0001272  21.6188 338.5044 14.23674059108590
ISS (ZARYA)             
1 25544U 98067A   19317.38580986  .00000331  00000-0  13820-4 0  9993
2 25544  51.6462 341.5343 0006075 274.8679 170.4704 15.50001558198405
PCSAT (NO-44)           
1 26931U 01043C   19316.59968466 -.00000022  00000-0  23191-4 0  9997
2 26931  67.0518 344.5839 0007470 266.0796  93.9452 14.30558312945912
SAUDISAT 1C (SO-50)     
1 27607U 02058C   19316.61644112 -.00000020  00000-0  18035-4 0  9996
2 27607  64.5549 320.3883 0072773 227.8456 131.6450 14.75587933908711
CUTE-1 (CO-55)          
1 27844U 03031E   19316.76261595  .00000050  00000-0  42458-4 0  9995
2 27844  98.6845 322.7815 0009296 331.1340  28.9322 14.22204808849150
CUBESAT XI-IV (CO-57)   
1 27848U 03031J   19317.00788055  .00000035  00000-0  35626-4 0  9994
2 27848  98.6919 323.5521 0009371 342.8854  17.2006 14.21796555849077
MOZHAYETS 4 (RS-22)     
1 27939U 03042A   19317.05464873  .00000005  00000-0  95134-5 0  9999
2 27939  98.0613  90.1864 0012053 326.5506  33.4899 14.66816319862147
CUBESAT XI-V            
1 28895U 05043F   19316.82751904  .00000128  00000-0  33428-4 0  9995
2 28895  97.9806  94.7059 0015660 245.2980 114.6593 14.63709655748773
CUTE-1.7+APD II (CO-65) 
1 32785U 08021C   19316.85338872  .00000222  00000-0  29509-4 0  9995
2 32785  97.5577 309.6908 0014187 130.6514 229.5939 14.88372358625509
DELFI-C3 (DO-64)        
1 32789U 08021G   19316.55061411  .00001579  00000-0  10867-3 0  9990
2 32789  97.4479   1.6724 0011606 349.9196  10.1797 15.07246428629085
SEEDS II (CO-66)        
1 32791U 08021J   19316.75743105  .00000414  00000-0  47242-4 0  9997
2 32791  97.5320 315.6964 0014785 106.3639 253.9207 14.90907921625943
YUBILEINY (RS-30)       
1 32953U 08025A   19317.01053241  .00000020  00000-0  75656-4 0  9999
2 32953  82.5060  53.1399 0019857 165.6644 194.5004 12.43092180520614
KKS-1 (KISEKI)          
1 33499U 09002H   19316.90369357  .00000104  00000-0  23324-4 0  9994
2 33499  98.3370 160.2355 0010381  96.9366 263.3023 14.75478299580507
SWISSCUBE               
1 35932U 09051B   19316.76754657  .00000118  00000-0  37679-4 0  9990
2 35932  98.5995 127.1775 0008653  76.9061 283.3101 14.56328311538143
BEESAT-1                
1 35933U 09051C   19316.76177314  .00000096  00000-0  32696-4 0  9999
2 35933  98.6010 128.9885 0006911  88.5805 271.6183 14.56411906538293
ITUPSAT1                
1 35935U 09051E   19316.90451556  .00000073  00000-0  27875-4 0  9998
2 35935  98.6119 129.3614 0009225  86.1339 274.0912 14.55566034538027
XIWANG-1 (HOPE-1)       
1 36122U 09072B   19316.72867687 -.00000004  00000-0  10070-3 0  9999
2 36122 100.0797 312.2328 0007843  11.8192 348.3104 13.16352197476227
JUGNU                   
1 37839U 11058B   19316.80434899  .00000297  00000-0  16590-4 0  9993
2 37839  19.9596 162.6596 0018942 148.6944 304.4315 14.12663883417976
SRMSAT                  
1 37841U 11058D   19317.14738264  .00000310  00000-0  25391-4 0  9992
2 37841  19.9709 220.4094 0011775  17.3236 136.2915 14.10643042417547
M-CUBED & EXP-1 PRIME   
1 37855U 11061F   19316.86773178  .00002623  00000-0  13720-3 0  9993
2 37855 101.7210 288.0605 0172735   0.4455 359.6880 15.05765823438921
STRAND-1                
1 39090U 13009E   19316.75988468  .00000022  00000-0  22924-4 0  9996
2 39090  98.4726 160.1568 0008550 206.0999 153.9756 14.35104723351486
SOMP                    
1 39134U 13015E   19316.84172472  .00001504  00000-0  76755-4 0  9999
2 39134  64.8630 263.5937 0037648 279.0023  80.6844 15.20490713362963
BEESAT-3                
1 39135U 13015F   19316.89554280  .00001170  00000-0  66648-4 0  9995
2 39135  64.8667 283.8097 0039789 284.3996  75.2715 15.17723825362193
BEESAT-2                
1 39136U 13015G   19316.92286424  .00001164  00000-0  67821-4 0  9999
2 39136  64.8681 287.9752 0030199 289.3621  70.4241 15.17138185362111
ZACUBE-1 (TSHEPISOSAT)  
1 39417U 13066B   19316.50623497  .00000197  00000-0  31228-4 0  9993
2 39417  97.5619 321.7544 0057418 272.7256  86.7386 14.81176347322776
GOMX-1                  
1 39430U 13066Q   19317.18167691  .00000153  00000-0  36395-4 0  9994
2 39430  97.7640 264.1515 0151593 148.7559 212.2768 14.59306956318111
CUBEBUG-2 (LO-74)       
1 39440U 13066AA  19316.93960603  .00000237  00000-0  39985-4 0  9992
2 39440  97.6120 306.7564 0079443 327.5614  32.0727 14.75914909321694
FUNCUBE-1 (AO-73)       
1 39444U 13066AE  19316.76281302  .00000249  00000-0  37042-4 0  9994
2 39444  97.5585 324.0775 0056546 264.8800  94.5958 14.82007943321124
UWE-3                   
1 39446U 13066AG  19316.96223367  .00000212  00000-0  34883-4 0  9995
2 39446  97.5862 313.9346 0068688 300.1225  59.3190 14.78449372321027
SPROUT                  
1 39770U 14029E   19317.22692449  .00000552  00000-0  66945-4 0  9997
2 39770  97.8914  59.6247 0008402 328.8910  31.1813 14.87498246296764
UNISAT-6                
1 40012U 14033C   19316.77988464  .00000187  00000-0  35276-4 0  9994
2 40012  97.7349 176.8920 0058049 344.6060  15.3381 14.74031059290354
DUCHIFAT-1              
1 40021U 14033M   19316.88353678  .00000539  00000-0  60718-4 0  9999
2 40021  97.9282 241.9822 0011618 287.7066  72.2883 14.90733543293471
QB50P1                  
1 40025U 14033R   19316.87157357  .00000311  00000-0  39076-4 0  9999
2 40025  97.9065 236.3073 0011229 298.9709  61.0382 14.89018057293223
NUDT-PHONESAT           
1 40900U 15049B   19317.14031373  .00001950  00000-0  85146-4 0  9998
2 40900  97.4368 325.0643 0013539  35.2511  29.9726 15.23261650230105
ZDPS 2A                 
1 40901U 15049C   19317.08714282  .00000751  00000-0  40281-4 0  9998
2 40901  97.4619 320.8124 0014971  53.8236  31.9372 15.17923066229593
ZDPS 2B                 
1 40902U 15049D   19317.20161660  .00001239  00000-0  64456-4 0  9991
2 40902  97.4576 318.3023 0014921  51.8152  78.5883 15.17809386229587
XW-2A                   
1 40903U 15049E   19317.20830970  .00001790  00000-0  43491-4 0  9997
2 40903  97.3206   0.6972 0012844 338.8384  94.7848 15.42306717232985
KAITUO 1A               
1 40904U 15049F   19317.23842683  .00000666  00000-0  38564-4 0  9991
2 40904  97.4716 316.7677 0016131  59.1555 357.0192 15.15500958229348
2015-049G               
1 40905U 15049G   19317.22618145  .00000108  00000-0  94293-5 0  9998
2 40905  97.4765 314.1556 0017017  55.5937   0.5523 15.14385803229201
XW-2C                   
1 40906U 15049H   19317.20954027  .00000547  00000-0  32036-4 0  9992
2 40906  97.4725 316.8940 0016276  51.1986  10.3985 15.15818449229340
XW-2D                   
1 40907U 15049J   19317.23341611  .00000489  00000-0  28853-4 0  9992
2 40907  97.4701 316.5985 0015501  48.9979   7.2434 15.16019108229369
LILACSAT-2              
1 40908U 15049K   19317.20044911  .00000544  00000-0  33558-4 0  9993
2 40908  97.4843 315.2196 0017391  56.3403  74.1620 15.13890452229121
XW-2F                   
1 40910U 15049M   19317.12130097  .00001033  00000-0  54752-4 0  9991
2 40910  97.4654 318.7184 0016009  42.1538  25.9232 15.17527934229372
XW-2B                   
1 40911U 15049N   19317.20798934  .00000645  00000-0  37013-4 0  9990
2 40911  97.4724 317.2490 0015492  50.0222  11.8968 15.15948769229256
KAITUO 1B               
1 40912U 15049P   19317.18918279  .00001122  00000-0  55392-4 0  9995
2 40912  97.4507 322.6593 0015589  24.3287  36.7120 15.19869178229719
TIANWANG 1C (TW-1C)     
1 40926U 15051B   19317.20384544  .00013627  00000-0  17745-3 0  9990
2 40926  97.1181   3.3155 0007494 168.9204 261.9388 15.58825851233116
TIANWANG 1A (TW-1A)     
1 40928U 15051D   19317.06959920  .00002437  00000-0  60036-4 0  9991
2 40928  97.1330 345.0694 0008988 255.5348 130.1534 15.41505734231877
LAPAN-A2                
1 40931U 15052B   19308.14990593  .00000506  00000-0 -18695-4 0  9996
2 40931   5.9899 149.2330 0013523 313.9745  46.0045 14.76617760221769
E-ST@R-II               
1 41459U 16025D   19317.07975970  .00002466  00000-0  12892-3 0  9995
2 41459  98.1005  50.9996 0166385 222.6645 136.1603 15.05789015194726
AAUSAT 4                
1 41460U 16025E   19316.93243072  .00003080  00000-0  15609-3 0  9994
2 41460  98.0981  52.4767 0156078 214.2332 144.8742 15.07818726194859
NUSAT-1 (FRESCO)        
1 41557U 16033B   19317.19142261  .00001384  00000-0  54041-4 0  9996
2 41557  97.4140  43.8224 0014950 132.3689 227.8819 15.27523977192606
BEESAT-4                
1 41619U 16040W   19317.12170255  .00001500  00000-0  65800-4 0  9995
2 41619  97.3508  16.4837 0010201 218.3836 141.6676 15.23454341176309
CAS-2T & KS-1Q          
1 41847U 16066G   19316.70375115  .00000056  00000-0  18512-4 0  9994
2 41847  98.6882 359.6480 0366376 157.3401 204.4438 14.38018679158123
NAYIF-1 (EO-88)         
1 42017U 17008BX  19316.87402107  .00001624  00000-0  66195-4 0  9993
2 42017  97.3880  22.3514 0006710  25.1188 335.0376 15.25885812152366
MAX VALIER SAT          
1 42778U 17036P   19316.91849171  .00001001  00000-0  46449-4 0  9998
2 42778  97.3370  11.2126 0013859  70.6907 289.5827 15.22243302132637
RADFXSAT (FOX-1B)       
1 43017U 17073E   19316.85367245  .00000896  00000-0  74580-4 0  9994
2 43017  97.7227 232.4516 0258755  39.4278 322.5452 14.78689252107002
FOX-1D (AO-92)          
1 43137U 18004AC  19316.87844845  .00001088  00000-0  48243-4 0  9991
2 43137  97.4729  24.2446 0010894  99.0979 261.1491 15.23707037101916
ES'HAIL 2               
1 43700U 18090A   19316.91782286  .00000158  00000-0  00000-0 0  9999
2 43700   0.0125 292.2375 0001836 327.6936 148.0031  1.00271393  3521
FOX-1CLIFF (AO-95)      
1 43770U 18099N   19316.83682405  .00000126  00000-0  16813-4 0  9996
2 43770  97.7323  26.7221 0014163 197.8377 162.2349 14.94850481 51402
ITASAT 1                
1 43786U 18099AE  19316.88453369  .00000722  00000-0  70805-4 0  9996
2 43786  97.7336  27.0311 0015007 191.4785 168.6096 14.95208768 51425
JY1SAT (JO-97)          
1 43803U 18099AX  19317.19030348  .00000130  00000-0  16960-4 0  9994
2 43803  97.7291  27.2096 0014999 191.7312 168.3562 14.95354853 51461
PSAT2 (NO-104)          
1 44354U 19036R   19316.43007663  .00010454  00000-0  15830-3 0  9992
2 44354  28.5320   8.0580 0381012 149.6440 212.6803 14.99243708 21020
BRICSAT2 (NO-103)       
1 44355U 19036S   19316.42589590  .00019086  00000-0  28976-3 0  9991
2 44355  28.5324   7.0598 0373947 151.2986 210.8733 15.00950393 21025
JAISAT-1                
1 44419U 19038F   19316.84515941  .00000792  00000-0  49114-4 0  9991
2 44419  97.5085 276.4742 0022297 156.7267 203.4978 15.12420426 19703
